{"type": "FeatureCollection", "features": [{"type": "Feature", "properties": {"norad_id": 32275, "name": "COSMOS 2433 (720)", "group": "glo-ops", "lat": 43.62989431777691, "lon": 116.15987441269714, "alt_km": 19132.474439304537, "timestamp": "2025-12-27T19:21:59.011922+00:00", "meta": {"OBJECT_NAME": "COSMOS 2433 (720)", "OBJECT_ID": "2007-052A", "EPOCH": "2025-12-26T05:29:12.755904", "MEAN_MOTION": 2.13104171, "ECCENTRICITY": 0.0005081, "INCLINATION": 65.6759, "RA_OF_ASC_NODE": 321.753, "ARG_OF_PERICENTER": 257.4758, "MEAN_ANOMALY": 102.4712, "EPHEMERIS_TYPE": 0, "CLASSIFICATION_TYPE": "U", "NORAD_CAT_ID": 32275, "ELEMENT_SET_NO": 999, "REV_AT_EPOCH": 14137, "BSTAR": 0, "MEAN_MOTION_DOT": -3.3e-07, "MEAN_MOTION_DDOT": 0}, "tle": {"line1": "1 32275U 07052A   25360.22861986 -.00000033  00000+0  00000+0 0  9996", "line2": "2 32275  65.6759 321.7530 0005081 257.4758 102.4712  2.13104171141375"}}, "geometry": {"type": "Point", "coordinates": [116.15987441269714, 43.62989431777691]}}, {"type": "Feature", "properties": {"norad_id": 32276, "name": "COSMOS 2432 (719)", "group": "glo-ops", "lat": 61.84040575707764, "lon": 19.364369772041954, "alt_km": 19137.66389677103, "timestamp": "2025-12-27T19:21:59.011946+00:00", "meta": {"OBJECT_NAME": "COSMOS 2432 (719)", "OBJECT_ID": "2007-052B", "EPOCH": "2025-12-27T06:49:58.250208", "MEAN_MOTION": 2.13103316, "ECCENTRICITY": 0.0011433, "INCLINATION": 65.6913, "RA_OF_ASC_NODE": 321.8424, "ARG_OF_PERICENTER": 315.4046, "MEAN_ANOMALY": 79.1571, "EPHEMERIS_TYPE": 0, "CLASSIFICATION_TYPE": "U", "NORAD_CAT_ID": 32276, "ELEMENT_SET_NO": 999, "REV_AT_EPOCH": 14142, "BSTAR": 0, "MEAN_MOTION_DOT": -3.6e-07, "MEAN_MOTION_DDOT": 0}, "tle": {"line1": "1 32276U 07052B   25361.28470197 -.00000036  00000+0  00000+0 0  9997", "line2": "2 32276  65.6913 321.8424 0011433 315.4046  79.1571  2.13103316141423"}}, "geometry": {"type": "Point", "coordinates": [19.364369772041954, 61.84040575707764]}}, {"type": "Feature", "properties": {"norad_id": 32393, "name": "COSMOS 2434 (721)", "group": "glo-ops", "lat": 19.063466027834085, "lon": -152.72632644954763, "alt_km": 19120.207549639883, "timestamp": "2025-12-27T19:21:59.011959+00:00", "meta": {"OBJECT_NAME": "COSMOS 2434 (721)", "OBJECT_ID": "2007-065A", "EPOCH": "2025-12-27T02:08:22.083936", "MEAN_MOTION": 2.13101378, "ECCENTRICITY": 0.0004806, "INCLINATION": 64.316, "RA_OF_ASC_NODE": 197.7187, "ARG_OF_PERICENTER": 72.1868, "MEAN_ANOMALY": 118.5002, "EPHEMERIS_TYPE": 0, "CLASSIFICATION_TYPE": "U", "NORAD_CAT_ID": 32393, "ELEMENT_SET_NO": 999, "REV_AT_EPOCH": 14010, "BSTAR": 0, "MEAN_MOTION_DOT": 1.2e-06, "MEAN_MOTION_DDOT": 0}, "tle": {"line1": "1 32393U 07065A   25361.08914449  .00000120  00000+0  00000+0 0  9995", "line2": "2 32393  64.3160 197.7187 0004806  72.1868 118.5002  2.13101378140101"}}, "geometry": {"type": "Point", "coordinates": [-152.72632644954763, 19.063466027834085]}}, {"type": "Feature", "properties": {"norad_id": 32395, "name": "COSMOS 2436 (723)", "group": "glo-ops", "lat": 22.84076539174417, "lon": 6.074263085061838, "alt_km": 19164.340582548924, "timestamp": "2025-12-27T19:21:59.011970+00:00", "meta": {"OBJECT_NAME": "COSMOS 2436 (723)", "OBJECT_ID": "2007-065C", "EPOCH": "2025-12-26T09:51:08.082144", "MEAN_MOTION": 2.13100172, "ECCENTRICITY": 0.0017813, "INCLINATION": 64.3246, "RA_OF_ASC_NODE": 197.8121, "ARG_OF_PERICENTER": 10.2944, "MEAN_ANOMALY": 152.7871, "EPHEMERIS_TYPE": 0, "CLASSIFICATION_TYPE": "U", "NORAD_CAT_ID": 32395, "ELEMENT_SET_NO": 999, "REV_AT_EPOCH": 14004, "BSTAR": 0, "MEAN_MOTION_DOT": 1.14e-06, "MEAN_MOTION_DDOT": 0}, "tle": {"line1": "1 32395U 07065C   25360.41051021  .00000114  00000+0  00000+0 0  9994", "line2": "2 32395  64.3246 197.8121 0017813  10.2944 152.7871  2.13100172140045"}}, "geometry": {"type": "Point", "coordinates": [6.074263085061838, 22.84076539174417]}}, {"type": "Feature", "properties": {"norad_id": 36111, "name": "COSMOS 2456 (730)", "group": "glo-ops", "lat": 1.364585122986972, "lon": -103.80441030270659, "alt_km": 19134.344356937374, "timestamp": "2025-12-27T19:21:59.011981+00:00", "meta": {"OBJECT_NAME": "COSMOS 2456 (730)", "OBJECT_ID": "2009-070A", "EPOCH": "2025-12-27T04:41:41.219808", "MEAN_MOTION": 2.13103691, "ECCENTRICITY": 0.00037027, "INCLINATION": 64.9075, "RA_OF_ASC_NODE": 76.844, "ARG_OF_PERICENTER": 295.0065, "MEAN_ANOMALY": 134.5252, "EPHEMERIS_TYPE": 0, "CLASSIFICATION_TYPE": "U", "NORAD_CAT_ID": 36111, "ELEMENT_SET_NO": 999, "REV_AT_EPOCH": 12476, "BSTAR": 0, "MEAN_MOTION_DOT": -1.5e-07, "MEAN_MOTION_DDOT": 0}, "tle": {"line1": "1 36111U 09070A   25361.19561597 -.00000015  00000+0  00000+0 0  9993", "line2": "2 36111  64.9075  76.8440 0003702 295.0065 134.5252  2.13103691124761"}}, "geometry": {"type": "Point", "coordinates": [-103.80441030270659, 1.364585122986972]}}, {"type": "Feature", "properties": {"norad_id": 36112, "name": "COSMOS 2457 (733)", "group": "glo-ops", "lat": -45.92001846074355, "lon": 47.76640301520039, "alt_km": 19144.307434425027, "timestamp": "2025-12-27T19:21:59.011992+00:00", "meta": {"OBJECT_NAME": "COSMOS 2457 (733)", "OBJECT_ID": "2009-070B", "EPOCH": "2025-12-27T08:55:10.742304", "MEAN_MOTION": 2.13101028, "ECCENTRICITY": 0.0004359, "INCLINATION": 64.8931, "RA_OF_ASC_NODE": 76.6852, "ARG_OF_PERICENTER": 164.6643, "MEAN_ANOMALY": 168.9221, "EPHEMERIS_TYPE": 0, "CLASSIFICATION_TYPE": "U", "NORAD_CAT_ID": 36112, "ELEMENT_SET_NO": 999, "REV_AT_EPOCH": 12476, "BSTAR": 0, "MEAN_MOTION_DOT": -1.6e-07, "MEAN_MOTION_DDOT": 0}, "tle": {"line1": "1 36112U 09070B   25361.37165211 -.00000016  00000+0  00000+0 0  9998", "line2": "2 36112  64.8931  76.6852 0004359 164.6643 168.9221  2.13101028124768"}}, "geometry": {"type": "Point", "coordinates": [47.76640301520039, -45.92001846074355]}}, {"type": "Feature", "properties": {"norad_id": 36402, "name": "COSMOS 2460 (732)", "group": "glo-ops", "lat": -46.41940445067284, "lon": -68.32980534294269, "alt_km": 19129.24350252233, "timestamp": "2025-12-27T19:21:59.012003+00:00", "meta": {"OBJECT_NAME": "COSMOS 2460 (732)", "OBJECT_ID": "2010-007C", "EPOCH": "2025-12-27T01:42:51.563232", "MEAN_MOTION": 2.13106312, "ECCENTRICITY": 0.00024726, "INCLINATION": 65.5217, "RA_OF_ASC_NODE": 320.2897, "ARG_OF_PERICENTER": 284.8889, "MEAN_ANOMALY": 178.0863, "EPHEMERIS_TYPE": 0, "CLASSIFICATION_TYPE": "U", "NORAD_CAT_ID": 36402, "ELEMENT_SET_NO": 999, "REV_AT_EPOCH": 12306, "BSTAR": 0, "MEAN_MOTION_DOT": -3.6e-07, "MEAN_MOTION_DDOT": 0}, "tle": {"line1": "1 36402U 10007C   25361.07143013 -.00000036  00000+0  00000+0 0  9997", "line2": "2 36402  65.5217 320.2897 0002472 284.8889 178.0863  2.13106312123060"}}, "geometry": {"type": "Point", "coordinates": [-68.32980534294269, -46.41940445067284]}}, {"type": "Feature", "properties": {"norad_id": 37867, "name": "COSMOS 2476 (744)", "group": "glo-ops", "lat": 64.98141587305989, "lon": 160.83964029263524, "alt_km": 19176.230668875633, "timestamp": "2025-12-27T19:21:59.012023+00:00", "meta": {"OBJECT_NAME": "COSMOS 2476 (744)", "OBJECT_ID": "2011-064A", "EPOCH": "2025-12-27T05:38:18.293280", "MEAN_MOTION": 2.13103875, "ECCENTRICITY": 0.00245828, "INCLINATION": 65.1694, "RA_OF_ASC_NODE": 78.6813, "ARG_OF_PERICENTER": 235.16, "MEAN_ANOMALY": 132.8776, "EPHEMERIS_TYPE": 0, "CLASSIFICATION_TYPE": "U", "NORAD_CAT_ID": 37867, "ELEMENT_SET_NO": 999, "REV_AT_EPOCH": 11010, "BSTAR": 0, "MEAN_MOTION_DOT": -1.3e-07, "MEAN_MOTION_DDOT": 0}, "tle": {"line1": "1 37867U 11064A   25361.23493395 -.00000013  00000+0  00000+0 0  9991", "line2": "2 37867  65.1694  78.6813 0024582 235.1600 132.8776  2.13103875110102"}}, "geometry": {"type": "Point", "coordinates": [160.83964029263524, 64.98141587305989]}}, {"type": "Feature", "properties": {"norad_id": 37868, "name": "COSMOS 2477 (745)", "group": "glo-ops", "lat": -65.10728929522568, "lon": -16.33808195250478, "alt_km": 19089.932439586133, "timestamp": "2025-12-27T19:21:59.012034+00:00", "meta": {"OBJECT_NAME": "COSMOS 2477 (745)", "OBJECT_ID": "2011-064B", "EPOCH": "2025-12-24T15:22:57.950400", "MEAN_MOTION": 2.13103036, "ECCENTRICITY": 0.00215718, "INCLINATION": 65.1748, "RA_OF_ASC_NODE": 78.8466, "ARG_OF_PERICENTER": 235.4688, "MEAN_ANOMALY": 123.4303, "EPHEMERIS_TYPE": 0, "CLASSIFICATION_TYPE": "U", "NORAD_CAT_ID": 37868, "ELEMENT_SET_NO": 999, "REV_AT_EPOCH": 11003, "BSTAR": 0, "MEAN_MOTION_DOT": 1e-08, "MEAN_MOTION_DDOT": 0}, "tle": {"line1": "1 37868U 11064B   25358.64094850  .00000001  00000+0  00000+0 0  9992", "line2": "2 37868  65.1748  78.8466 0021571 235.4688 123.4303  2.13103036110036"}}, "geometry": {"type": "Point", "coordinates": [-16.33808195250478, -65.10728929522568]}}, {"type": "Feature", "properties": {"norad_id": 37869, "name": "COSMOS 2475 (743)", "group": "glo-ops", "lat": -38.662522425925964, "lon": -79.53329242384662, "alt_km": 19073.150306991964, "timestamp": "2025-12-27T19:21:59.012046+00:00", "meta": {"OBJECT_NAME": "COSMOS 2475 (743)", "OBJECT_ID": "2011-064C", "EPOCH": "2025-12-26T02:48:59.782176", "MEAN_MOTION": 2.13101658, "ECCENTRICITY": 0.00268162, "INCLINATION": 65.1822, "RA_OF_ASC_NODE": 78.8169, "ARG_OF_PERICENTER": 249.2724, "MEAN_ANOMALY": 118.1607, "EPHEMERIS_TYPE": 0, "CLASSIFICATION_TYPE": "U", "NORAD_CAT_ID": 37869, "ELEMENT_SET_NO": 999, "REV_AT_EPOCH": 11008, "BSTAR": 0, "MEAN_MOTION_DOT": -5e-08, "MEAN_MOTION_DDOT": 0}, "tle": {"line1": "1 37869U 11064C   25360.11735859 -.00000005  00000+0  00000+0 0  9994", "line2": "2 37869  65.1822  78.8169 0026816 249.2724 118.1607  2.13101658110082"}}, "geometry": {"type": "Point", "coordinates": [-79.53329242384662, -38.662522425925964]}}]}